NORAD_CAT_ID,OBJECT_NAME,OBJECT_TYPE,EPOCH,MEAN_MOTION,ECCENTRICITY,INCLINATION,RA_OF_ASC_NODE,ARG_OF_PERICENTER,MEAN_ANOMALY,BSTAR,MEAN_MOTION_DOT,MEAN_MOTION_DDOT,TLE_LINE0,TLE_LINE1,TLE_LINE2,SEMIMAJOR_AXIS,PERIOD,APOGEE,PERIGEE,DECAYED
51771.0,STARLINK-3614,PAYLOAD,2022-04-22 22:00:00,15.59073027,0.0001841,53.2173,225.536,26.0848,0.3291,-0.009828,-0.00715459,0.0,0 STARLINK-3614,1 51771U 22017D   22112.91667824 -.00715459  00000-0 -98280-2 0  9996,2 51771  53.2173 225.5360 0001841  26.0848   0.3291 15.59073027 10082,6768.476,92.363,391.587,389.095,0.0
51771.0,STARLINK-3614,PAYLOAD,2022-04-23 14:00:01,15.58051888,0.0002134,53.2174,222.3045,28.9932,140.0932,-0.010189,-0.00713694,0.0,0 STARLINK-3614,1 51771U 22017D   22113.58334491 -.00713694  00000-0 -10189-1 0  9991,2 51771  53.2174 222.3045 0002134  28.9932 140.0932 15.58051888  3692,6771.433000000001,92.423,394.74300000000005,391.853,0.0
51771.0,STARLINK-3614,PAYLOAD,2022-04-23 22:00:00,15.57543895,0.0001641999999999,53.2172,220.6899,42.187,197.316,-0.010443,-0.00717143,0.0,0 STARLINK-3614,1 51771U 22017D   22113.91667824 -.00717143  00000-0 -10443-1 0  9993,2 51771  53.2172 220.6899 0001642  42.1870 197.3160 15.57543895 10239,6772.905,92.453,395.882,393.658,0.0
51771.0,STARLINK-3614,PAYLOAD,2022-04-24 14:00:01,15.56524265,0.0002074,53.2174,217.4662,23.1562,355.3414,-0.010853,-0.00717343,0.0,0 STARLINK-3614,1 51771U 22017D   22114.58334491 -.00717343  00000-0 -10853-1 0  9995,2 51771  53.2174 217.4662 0002074  23.1562 355.3414 15.56524265  3699,6775.861999999999,92.514,399.133,396.322,0.0
51771.0,STARLINK-3614,PAYLOAD,2022-04-25 06:00:00,15.55502691,0.0001785,53.2173,214.2447,37.6452,117.3981,-0.011209,-0.00713463,0.0,0 STARLINK-3614,1 51771U 22017D   22115.25001157 -.00713463  00000-0 -11209-1 0  9995,2 51771  53.2173 214.2447 0001785  37.6452 117.3981 15.55502691 10444,6778.829000000002,92.575,401.904,399.484,0.0
51771.0,STARLINK-3614,PAYLOAD,2022-04-25 14:00:01,15.54992023,0.0002053,53.2173,212.6388,32.3416,190.0541,-0.011414,-0.00712985,0.0,0 STARLINK-3614,1 51771U 22017D   22115.58334491 -.00712985  00000-0 -11414-1 0  9997,2 51771  53.2173 212.6388 0002053  32.3416 190.0541 15.54992023  3714,6780.313,92.605,403.57,400.786,0.0
51771.0,STARLINK-3614,PAYLOAD,2022-04-25 22:00:00,15.54484013,0.0001426,53.2173,211.0312,48.1273,241.0084,-0.011692,-0.00716338,0.0,0 STARLINK-3614,1 51771U 22017D   22115.91667824 -.00716338  00000-0 -11692-1 0  9997,2 51771  53.2173 211.0312 0001426  48.1273 241.0084 15.54484013  3706,6781.79,92.635,404.622,402.68800000000016,0.0
51771.0,STARLINK-3614,PAYLOAD,2022-04-26 06:00:00,15.53971299,0.0001605,53.2175,209.4248,36.1386,319.1258,-0.011815,-0.00710879,0.0,0 STARLINK-3614,1 51771U 22017D   22116.25001157 -.00710879  00000-0 -11815-1 0  9997,2 51771  53.2175 209.4248 0001605  36.1386 319.1258 15.53971299 10601,6783.281999999997,92.666,406.235,404.0580000000001,0.0
51771.0,STARLINK-3614,PAYLOAD,2022-04-26 14:00:01,15.53464285,0.0001971,53.2176,207.8226,27.7634,33.0781,-0.012136,-0.00716328,0.0,0 STARLINK-3614,1 51771U 22017D   22116.58335648 -.00716328  00000-0 -12136-1 0  9990,2 51771  53.2176 207.8226 0001971  27.7634  33.0781 15.53464285  3694,6784.757,92.696,407.96,405.285,0.0
51771.0,STARLINK-3614,PAYLOAD,2022-04-26 22:00:00,15.52952736,0.0001998,53.2172,206.2185,28.5877,97.0921,-0.012311,-0.0071348,0.0,0 STARLINK-3614,1 51771U 22017D   22116.91667824 -.00713480  00000-0 -12311-1 0  9992,2 51771  53.2172 206.2185 0001998  28.5877  97.0921 15.52952736  3670,6786.246999999999,92.727,409.468,406.756,0.0
51771.0,STARLINK-3614,PAYLOAD,2022-04-27 06:00:00,15.52442362,0.0002055,53.2175,204.6159,30.7136,159.2553,-0.012504,-0.0071153,0.0,0 STARLINK-3614,1 51771U 22017D   22117.25001157 -.00711530  00000-0 -12504-1 0  9999,2 51771  53.2175 204.6159 0002055  30.7136 159.2553 15.52442362 10752,6787.735,92.757,410.994,408.205,0.0
51771.0,STARLINK-3614,PAYLOAD,2022-04-27 14:00:01,15.51932208,0.0002113,53.2175,203.0173,27.0403,226.6689,-0.012755,-0.00712451,0.0,0 STARLINK-3614,1 51771U 22017D   22117.58335648 -.00712451  00000-0 -12755-1 0  9991,2 51771  53.2175 203.0173 0002113  27.0403 226.6689 15.51932208  3698,6789.222,92.788,412.522,409.652,0.0
51771.0,STARLINK-3614,PAYLOAD,2022-04-28 06:00:00,15.50788034,0.0001628,53.216,199.8192,40.7121,338.515,-0.010076,-0.00551291,0.0,0 STARLINK-3614,1 51771U 22017D   22118.25001157 -.00551291  00000-0 -10076-1 0  9998,2 51771  53.2160 199.8192 0001628  40.7121 338.5150 15.50788034 10918,6792.561,92.856,415.532,413.32,0.0
51771.0,STARLINK-3614,PAYLOAD,2022-04-28 14:00:01,15.50345441,0.0001623,53.2174,198.2241,37.6141,43.3928,-0.010674,-0.00573234,0.0,0 STARLINK-3614,1 51771U 22017D   22118.58334491 -.00573234  00000-0 -10674-1 0  9999,2 51771  53.2174 198.2241 0001623  37.6141  43.3928 15.50345441 10963,6793.854,92.883,416.821,414.616,0.0
51771.0,STARLINK-3614,PAYLOAD,2022-04-28 20:00:01,15.49909361,0.0001431999999999,53.2173,197.0274,46.7368,350.2461,-0.00069122,-0.00039518,0.0,0 STARLINK-3614,1 51771U 22017D   22118.83334491 -.00039518  00000-0 -69122-3 0  9993,2 51771  53.2173 197.0274 0001432  46.7368 350.2461 15.49909361 11008,6795.128000000002,92.909,417.966,416.02,0.0
51771.0,STARLINK-3614,PAYLOAD,2022-04-29 14:00:01,15.49993427,0.0001769,53.2158,193.4468,43.6619,220.4164,-0.0061289,-0.00335143,0.0,0 STARLINK-3614,1 51771U 22017D   22119.58334491 -.00335143  00000-0 -61289-2 0  9994,2 51771  53.2158 193.4468 0001769  43.6619 220.4164 15.49993427 11121,6794.882,92.904,417.949,415.545,0.0
51771.0,STARLINK-3614,PAYLOAD,2022-04-29 22:00:00,15.49826519,0.0001414,53.217,191.8478,43.956,281.0253,-0.012679,-0.0066093,0.0,0 STARLINK-3614,1 51771U 22017D   22119.91667824 -.00660930  00000-0 -12679-1 0  9993,2 51771  53.2170 191.8478 0001414  43.9560 281.0253 15.49826519 11177,6795.37,92.914,418.196,416.274,0.0
51771.0,STARLINK-3614,PAYLOAD,2022-04-30 12:00:00,15.48972369,0.0001804,53.2176,189.0586,32.8522,307.7196,-0.014229,-0.00723904,0.0,0 STARLINK-3614,1 51771U 22017D   22120.50001157 -.00723904  00000-0 -14229-1 0  9995,2 51771  53.2176 189.0586 0001804  32.8522 307.7196 15.48972369 11266,6797.868,92.965,420.959,418.507,0.0
51771.0,STARLINK-3614,PAYLOAD,2022-04-30 14:00:01,15.48842507,0.0001934,53.2177,188.6608,29.2872,56.2191,-0.014211,-0.00720009,0.0,0 STARLINK-3614,1 51771U 22017D   22120.58334491 -.00720009  00000-0 -14211-1 0  9997,2 51771  53.2177 188.6608 0001934  29.2872  56.2191 15.48842507  3676,6798.248000000001,92.973,421.42800000000005,418.798,0.0
51771.0,STARLINK-3614,PAYLOAD,2022-04-30 22:00:00,15.48333211,0.0001665,53.2174,187.0672,39.7679,105.0908,-0.014477,-0.00720364,0.0,0 STARLINK-3614,1 51771U 22017D   22120.91667824 -.00720364  00000-0 -14477-1 0  9991,2 51771  53.2174 187.0672 0001665  39.7679 105.0908 15.48333211  3709,6799.739000000001,93.003,422.736,420.472,0.0
51771.0,STARLINK-3614,PAYLOAD,2022-05-01 14:00:01,15.4731173,0.0001698,53.2175,183.8887,42.1114,219.6121,-0.014943,-0.00717627,0.0,0 STARLINK-3614,1 51771U 22017D   22121.58334491 -.00717627  00000-0 -14943-1 0  9992,2 51771  53.2175 183.8887 0001698  42.1114 219.6121 15.47311730 11439,6802.731,93.065,425.751,423.441,0.0
51771.0,STARLINK-3614,PAYLOAD,2022-05-01 22:00:01,15.46804799,0.0001456,53.2175,182.2987,44.6588,274.6426,-0.015336,-0.00723125,0.0,0 STARLINK-3614,1 51771U 22017D   22121.91668981 -.00723125  00000-0 -15336-1 0  9990,2 51771  53.2175 182.2987 0001456  44.6588 274.6426 15.46804799  3696,6804.217,93.095,427.073,425.091,0.0
51771.0,STARLINK-3614,PAYLOAD,2022-05-02 14:00:01,15.45780755,0.0001869,53.2174,179.1278,30.0514,42.3746,-0.015729,-0.00716392,0.0,0 STARLINK-3614,1 51771U 22017D   22122.58334491 -.00716392  00000-0 -15729-1 0  9994,2 51771  53.2174 179.1278 0001869  30.0514  42.3746 15.45780755 11585,6807.222,93.157,430.359,427.815,0.0
51771.0,STARLINK-3614,PAYLOAD,2022-05-02 22:00:01,15.45271534,0.0001692,53.2174,177.5414,34.6055,93.5606,-0.016022,-0.00716963,0.0,0 STARLINK-3614,1 51771U 22017D   22122.91668981 -.00716963  00000-0 -16022-1 0  9996,2 51771  53.2174 177.5414 0001692  34.6055  93.5606 15.45271534  3699,6808.717,93.188,431.734,429.43,0.0
51771.0,STARLINK-3614,PAYLOAD,2022-05-03 14:00:01,15.44249576,0.000169,53.2175,174.3775,43.9091,193.704,-0.0165,-0.00713222,0.0,0 STARLINK-3614,1 51771U 22017D   22123.58334491 -.00713222  00000-0 -16500-1 0  9992,2 51771  53.2175 174.3775 0001690  43.9091 193.7040 15.44249576 11746,6811.721,93.249,434.737,432.435,0.0
51771.0,STARLINK-3614,PAYLOAD,2022-05-03 22:00:00,15.43743317,0.000182,53.2176,172.7948,32.5786,258.8711,-0.01695,-0.00719643,0.0,0 STARLINK-3614,1 51771U 22017D   22123.91667824 -.00719643  00000-0 -16950-1 0  9990,2 51771  53.2176 172.7948 0001820  32.5786 258.8711 15.43743317  3684,6813.21,93.28,436.315,433.835,0.0
51771.0,STARLINK-3614,PAYLOAD,2022-05-04 14:00:01,15.42721541,0.0001498,53.2174,169.6384,41.3094,355.9748,-0.017462,-0.00716332,0.0,0 STARLINK-3614,1 51771U 22017D   22124.58334491 -.00716332  00000-0 -17462-1 0  9996,2 51771  53.2174 169.6384 0001498  41.3094 355.9748 15.42721541 11897,6816.218000000003,93.342,439.104,437.062,0.0
51771.0,STARLINK-3614,PAYLOAD,2022-05-04 22:00:01,15.422119,0.0001603,53.2175,168.0592,37.3393,52.0087,-0.017786,-0.00717135,0.0,0 STARLINK-3614,1 51771U 22017D   22124.91668981 -.00717135  00000-0 -17786-1 0  9998,2 51771  53.2175 168.0592 0001603  37.3393  52.0087 15.42211900  3690,6817.72,93.372,440.67800000000005,438.492,0.0
51771.0,STARLINK-3614,PAYLOAD,2022-05-05 14:00:01,15.41189562,0.0001748,53.2172,164.9101,41.4142,150.0275,-0.018279,-0.00712537,0.0,0 STARLINK-3614,1 51771U 22017D   22125.58334491 -.00712537  00000-0 -18279-1 0  9997,2 51771  53.2172 164.9101 0001748  41.4142 150.0275 15.41189562  3691,6820.734,93.434,443.792,441.407,0.0
